{"type":"FeatureCollection","name":"National Capital Region city and municipality boundaries","metadata":{"regionPsgc":"1300000000","snapshot":"2023-12-31","source":"faeldon/philippines-json-maps","license":"MIT","sourceUrls":["https://raw.githubusercontent.com/faeldon/philippines-json-maps/refs/heads/master/2023/geojson/country/medres/country.0.01.json","https://raw.githubusercontent.com/faeldon/philippines-json-maps/refs/heads/master/2023/geojson/provdists/medres/municities-provdist-1303900000.0.01.json","https://raw.githubusercontent.com/faeldon/philippines-json-maps/refs/heads/master/2023/geojson/provdists/medres/municities-provdist-1307400000.0.01.json","https://raw.githubusercontent.com/faeldon/philippines-json-maps/refs/heads/master/2023/geojson/provdists/medres/municities-provdist-1307500000.0.01.json","https://raw.githubusercontent.com/faeldon/philippines-json-maps/refs/heads/master/2023/geojson/provdists/medres/municities-provdist-1307600000.0.01.json"]},"overview":{"type":"Feature","id":"1300000000","properties":{"psgc":"1300000000","name":"National Capital Region (NCR)","areaType":"region","regionPsgc":"1300000000"},"geometry":{"type":"Polygon","coordinates":[[[121.0995065390001,14.769209589000067],[121.0998791180001,14.767112952000046],[121.09972917900006,14.765222305000064],[121.10197788400001,14.765484873000048],[121.10491462400012,14.762656063000058],[121.10968224500004,14.763837527000021],[121.11029895500008,14.765486012000055],[121.11324457400008,14.768538131000074],[121.11465265300001,14.77216348600007],[121.11842563900008,14.773382847000049],[121.11989027600008,14.775129153000025],[121.12119922200007,14.776029560000044],[121.12513574900004,14.775459382000063],[121.12883497500002,14.777562997000077],[121.13106080300008,14.77648349700007],[121.1321174950001,14.776390408000056],[121.13358931500012,14.777655922000065],[121.1349717920001,14.776730445000059],[121.13328835100003,14.774261170000045],[121.1331451210001,14.773060869000062],[121.12984058600013,14.772511793000039],[121.12873424000009,14.770751301000077],[121.12763650600006,14.769791238000039],[121.12773733100005,14.76902158400003],[121.12647283200009,14.767236921000057],[121.12478007000006,14.766289029000061],[121.1255521490001,14.764895532000025],[121.12603578200002,14.762583980000048],[121.12537554800008,14.760804572000033],[121.12336595700005,14.759635358000022],[121.12321421500009,14.75801924200005],[121.12163560400006,14.757725479000044],[121.12151610900004,14.756186059000077],[121.12093331600012,14.755079704000025],[121.12128729400001,14.753899777000068],[121.12049246400011,14.751638564000073],[121.11822157000006,14.749419337000061],[121.11873846800006,14.747704781000044],[121.11777222700005,14.746046385000053],[121.11836707200008,14.743532162000069],[121.11763655500012,14.740768134000062],[121.1181097640001,14.739392745000027],[121.11959851600012,14.739695272000061],[121.12234659300009,14.738127089000047],[121.12178422500006,14.73627613300005],[121.12189261600008,14.735080236000039],[121.12097236300009,14.73472861900007],[121.11870280600009,14.732935843000064],[121.11802297800013,14.729928850000022],[121.11924025400003,14.729137145000038],[121.12032009500001,14.726522029000028],[121.12169877500003,14.725227084000043],[121.12262824900006,14.726947318000045],[121.12350383900002,14.727668790000054],[121.12614072600003,14.726651681000021],[121.12776692600004,14.727108120000024],[121.12926705300002,14.728125032000035],[121.13085372500007,14.726473451000059],[121.13150281800007,14.724533383000056],[121.13098795500002,14.72291754300005],[121.12795240500009,14.721880154000077],[121.1258152700001,14.721399373000054],[121.125063575,14.719831102000057],[121.12559519300008,14.717889362000049],[121.1246760360001,14.71683378000006],[121.12515949800002,14.715554877000042],[121.12490392200004,14.713807900000063],[121.12484171900006,14.71012550100005],[121.12461778900001,14.70874460200002],[121.12375939200001,14.707338821000063],[121.12240337400011,14.707811561000026],[121.12281391200008,14.709291985000057],[121.11977186300008,14.711820449000072],[121.11791254900004,14.712185830000061],[121.11599242800001,14.709234545000077],[121.11640583700012,14.705626875000062],[121.11813914000004,14.703424914000042],[121.1204377690001,14.701429566000062],[121.12010187400006,14.698593123000025],[121.1188702610001,14.697485915000074],[121.11585597600005,14.697940187000027],[121.11467589100003,14.697843459000072],[121.1123498280001,14.69662989000006],[121.11146916300005,14.69566768200002],[121.11113734900005,14.690639048000039],[121.1121687010001,14.684747919000074],[121.1102885480001,14.680571536000057],[121.10837328900004,14.677084282000063],[121.10676618800005,14.675521389000039],[121.11057805500003,14.672975989000067],[121.10980520500004,14.670931547000068],[121.11069446700003,14.669853092000032],[121.11188912900003,14.671163089000062],[121.11151913200001,14.672555832000054],[121.11236098400002,14.672821908000058],[121.11343346100011,14.67162214900003],[121.11534778900013,14.67240799900003],[121.11465971400003,14.673711600000043],[121.11615055800007,14.673949245000069],[121.11687185500011,14.672265569000047],[121.1176149490001,14.671805892000068],[121.11927973400009,14.672324185000043],[121.11938816800013,14.671460363000053],[121.12053310700004,14.670488563000047],[121.12003175300003,14.669176499000063],[121.1218227620001,14.666384891000062],[121.12501273300006,14.66685227000005],[121.12470417300005,14.668567503000078],[121.12515340100002,14.669638390000044],[121.1261471470001,14.669974177000034],[121.12723618400004,14.66918008700003],[121.1299905410001,14.66851758900004],[121.13120663300003,14.66783240300003],[121.13064850100012,14.664855701000018],[121.13170123700003,14.663603308000063],[121.13294455500011,14.661352631000055],[121.13486852100006,14.658852383000067],[121.13503641400007,14.657663518000055],[121.13460987400005,14.654541611000075],[121.13300750300004,14.653534725000048],[121.13133300500012,14.653465219000047],[121.13043960800007,14.65079818800007],[121.1306113710001,14.650360651000026],[121.12915155900009,14.646061711000074],[121.12855805700009,14.643593338000073],[121.12926537300008,14.640606381000058],[121.12924051000006,14.639638891000056],[121.13011307700005,14.63569010500004],[121.13001300700012,14.634344953000038],[121.12824011300006,14.635051541000056],[121.12718665400007,14.635966894000038],[121.125227945,14.636074749000047],[121.12376552,14.637800583000052],[121.12278393400004,14.636806527000036],[121.12065846700011,14.635643092000066],[121.1190631940001,14.635478176000046],[121.11858878300006,14.636745531000033],[121.11717232700003,14.63692851900004],[121.11583293700004,14.638273890000056],[121.11358356700009,14.637900409000057],[121.11207000800005,14.63616927600003],[121.11071726500006,14.63587602400003],[121.1085360820001,14.636495850000077],[121.10780032000004,14.635984015000078],[121.10549838300007,14.632654354000069],[121.10581538500003,14.632029280000033],[121.10503404200007,14.629886167000056],[121.1046452280001,14.627453533000049],[121.10383662500008,14.626708193000074],[121.10399020800003,14.624620055000037],[121.1048362360001,14.623409073000065],[121.10439943700011,14.622481875000059],[121.10495984200008,14.621358134000046],[121.10187866500006,14.620657343000062],[121.1016444060001,14.618594488000044],[121.1019327580001,14.615649672000071],[121.10571949400003,14.603391834000034],[121.10944086300003,14.597255581000066],[121.10944480900002,14.595538176000046],[121.11018084600006,14.594523767000064],[121.11044978200005,14.592235448000055],[121.10475710500009,14.592228198000042],[121.10484580400009,14.593488223000069],[121.10369517200003,14.59366861700005],[121.10345673100007,14.588897737000028],[121.10864271800007,14.587715427000031],[121.10820723100005,14.585650816000054],[121.10844074200008,14.583206197000038],[121.10905753300005,14.580946777000065],[121.10802203200001,14.578993337000044],[121.10662579700012,14.578698630000076],[121.1009745340001,14.574820267000064],[121.10176341700003,14.573731944000036],[121.09826511900008,14.569990275000062],[121.0968965510001,14.569254547000074],[121.09661020100009,14.565067988000065],[121.09594815500009,14.56385213200002],[121.09808476800005,14.562368499000058],[121.09637116600004,14.560206091000051],[121.09818071600012,14.55859849700005],[121.09782794500005,14.556846020000021],[121.09812230000013,14.554700033000072],[121.09912240200003,14.553317539000034],[121.1010147510001,14.553572467000036],[121.10181875400009,14.552660610000034],[121.10564045200012,14.550432530000023],[121.10847763500009,14.548002461000065],[121.10972207600004,14.546624930000064],[121.10933757300005,14.545909922000023],[121.10700168300002,14.545701014000032],[121.10571950800012,14.54044141300005],[121.10586833200011,14.53884199200007],[121.10550936600009,14.536121083000067],[121.10473370800003,14.536107409000067],[121.10359037400008,14.532237988000077],[121.10384570800011,14.530768855000076],[121.10264856800006,14.527728515000037],[121.10247570600008,14.52430902800006],[121.10210440800005,14.524414682000044],[121.1024699400001,14.526136431000056],[121.1010505710001,14.52759091200005],[121.09928782100008,14.525175543000048],[121.0970565030001,14.523464322000054],[121.09620749500004,14.522171409000068],[121.09383482400006,14.521060017000027],[121.0951388210001,14.520420050000038],[121.09458881600005,14.519616104000022],[121.09348982000006,14.520148077000046],[121.09139679800012,14.516545318000055],[121.09199679700009,14.51632732900004],[121.08935376700003,14.511263666000051],[121.08789030000003,14.508054841000051],[121.08712173200001,14.507036266000053],[121.08524669300004,14.505624271000043],[121.08271470000011,14.505055543000028],[121.08141237700012,14.505146132000048],[121.06932934800011,14.50668639300005],[121.06738414200005,14.503185316000048],[121.06635828700007,14.500125533000073],[121.06619834000003,14.49878339800005],[121.06530790000011,14.496766716000026],[121.06315490600001,14.48877318600006],[121.06217712200011,14.487713453000028],[121.06266980400005,14.484627067000076],[121.0625247150001,14.48188080500006],[121.0617779790001,14.479700032000041],[121.06232885400004,14.478359259000056],[121.06167324600005,14.477283294000074],[121.06160652200003,14.475626061000073],[121.06098047600007,14.474908799000048],[121.05929284500007,14.469177004000075],[121.05734070900009,14.46789030800005],[121.05807749200007,14.467247433000066],[121.05672299000003,14.466172512000073],[121.05638640100004,14.46472014600005],[121.0569128510001,14.463562430000025],[121.05560131800006,14.462426996000033],[121.05390775000002,14.457130870000071],[121.0542885750001,14.45625713000004],[121.0533802880001,14.454051363000072],[121.0527846760001,14.447051351000024],[121.05319930800012,14.447018495000066],[121.05371579800011,14.451157311000028],[121.05444406600009,14.450480063000047],[121.05397241500008,14.446450445000036],[121.05560813600005,14.44574111200006],[121.05431214100007,14.44430904500007],[121.05408764100001,14.442561175000035],[121.05348906100004,14.441404620000075],[121.05378482200001,14.439944492000052],[121.05303724000011,14.43914340600003],[121.05188986700011,14.436265553000057],[121.0517406690001,14.433130093000045],[121.05221690200005,14.431496833000036],[121.05187271600006,14.427513727000076],[121.05235484600006,14.426427205000037],[121.0535333370001,14.42635402700006],[121.05385427800002,14.424783914000042],[121.05248769000004,14.42366420700006],[121.0521022700001,14.42062848000006],[121.0523997570001,14.414098091000026],[121.05351218800001,14.413408974000047],[121.0526272640001,14.412072917000046],[121.05244736300004,14.409977223000055],[121.05166359700003,14.409885096000048],[121.05123885500008,14.40854673800004],[121.051359305,14.405407394000067],[121.05183913900011,14.40477558600002],[121.05153798700009,14.403108750000062],[121.05217421900012,14.401939121000051],[121.05138136400002,14.401288246000036],[121.05103386400003,14.398819309000029],[121.05118068,14.397627659000023],[121.05208119500003,14.396428665000021],[121.05185604700011,14.393680779000025],[121.0536056960001,14.392501355000038],[121.05302327900006,14.390370094000046],[121.05344660100002,14.386912599000024],[121.05481133700005,14.386520500000076],[121.05466225500004,14.384538106000036],[121.05499708500008,14.382740270000058],[121.05571386300005,14.381577136000036],[121.05798536000009,14.380141653000067],[121.05706250100002,14.379638739000026],[121.05738450200012,14.378639585000029],[121.05599119600004,14.377708990000032],[121.05423410400009,14.375426566000044],[121.05255455200007,14.374777004000062],[121.05228134600009,14.37094286600006],[121.05150154700004,14.369658617000029],[121.04961380100008,14.369018703000053],[121.04838804600003,14.367284537000044],[121.04694269400011,14.367953033000049],[121.04600543400011,14.36697012600007],[121.04491724800005,14.36820458700003],[121.04486373400006,14.369426872000076],[121.04342044200007,14.371819050000058],[121.04169287800006,14.369776447000048],[121.03927631200008,14.369145682000072],[121.0372402820001,14.36799178800004],[121.03645696900004,14.366511009000018],[121.0354978890001,14.366775817000072],[121.03360255000005,14.366351378000049],[121.03292930300005,14.365607391000022],[121.03167618700002,14.366064467000054],[121.0298758130001,14.365980729000055],[121.02865881600007,14.36351324000003],[121.02664351400007,14.362441389000024],[121.0266463050001,14.36131371300007],[121.02591499100004,14.359451931000022],[121.02450414900011,14.358047617000068],[121.02287010400005,14.357065605000063],[121.0224127140001,14.355796717000036],[121.02077139700009,14.35509685000005],[121.01945223300004,14.353054343000053],[121.01623891600002,14.351821071000076],[121.01336353000012,14.351973628000055],[121.00979282000002,14.353507534000075],[121.00689103200013,14.353943146000061],[121.00759085400011,14.355170370000051],[121.00724601400009,14.357033181000073],[121.00764943700007,14.358636287000024],[121.00673784700005,14.361209782000056],[121.00659688700011,14.363504895000068],[121.00705229500011,14.36574579300003],[121.0069416680001,14.368387959000078],[121.00718216100006,14.370073908000052],[121.01000345300008,14.372611093000048],[121.0108022180001,14.374976790000062],[121.01064739000005,14.376265709000046],[121.01161116900006,14.380260945000037],[121.00977588900003,14.380729163000062],[121.0091436230001,14.381330670000064],[121.00882578200005,14.38293354900003],[121.007783677,14.383800736000072],[121.00785610500009,14.384978908000043],[121.00666103300011,14.387115552000067],[121.00801348100002,14.389887671000057],[121.00785481900004,14.390869810000032],[121.0062702350001,14.391743459000056],[121.00507544600009,14.393029411000041],[121.00417505200006,14.39280220900002],[121.00173473400002,14.39424325900006],[121.002935911,14.397282981000043],[121.00219551300007,14.398032894000044],[121.00210210600005,14.399287217000047],[121.00082376400007,14.401403554000066],[120.99854474100006,14.403687525000063],[120.99803739700008,14.404715208000033],[120.9960227050001,14.405158391000041],[120.99525070300001,14.405864725000077],[120.99515460300007,14.407266182000052],[120.99448670900004,14.407610540000066],[120.99520815600012,14.409167091000025],[120.99500452300002,14.41057051200005],[120.99336490700013,14.41363058500002],[120.99160112900007,14.415558140000027],[120.9903798150001,14.416101280000078],[120.99101297800007,14.417436624000063],[120.99029879400007,14.419336114000032],[120.99038881700007,14.421100568000043],[120.98922629800006,14.422662464000043],[120.98760825400008,14.422406691000045],[120.98674640900003,14.42274864900003],[120.98709123300011,14.426103077000047],[120.98566454800005,14.42598814900003],[120.98597243800009,14.42772818000003],[120.98449536800001,14.429663197000028],[120.98483307000005,14.430790135000052],[120.98377063700002,14.433689059000075],[120.97915620900005,14.435105431000064],[120.97722866200003,14.437202418000027],[120.976352614,14.437480394000033],[120.97409510600004,14.439106137000072],[120.97294950500009,14.440950892000048],[120.97279788100003,14.44227338800005],[120.9719555270001,14.444219225000035],[120.96992547900005,14.446625819000072],[120.97004607800011,14.44960408300005],[120.9697000120001,14.452792084000066],[120.97045243900004,14.454728424000054],[120.9696916910001,14.456776530000072],[120.96827505500003,14.458629573000055],[120.96758340500001,14.460445980000031],[120.9675816690001,14.462303654000037],[120.96612924100009,14.464390537000043],[120.9660033990001,14.465722366000023],[120.96705732700002,14.466068432000041],[120.96916918900001,14.46768988800005],[120.96934841500003,14.46929673800003],[120.9675869130001,14.469775532000028],[120.9681106810001,14.471218677000017],[120.96915469600003,14.471956796000024],[120.97044982200008,14.47101822400003],[120.97161386200004,14.471804737000067],[120.9699304500001,14.475450371000019],[120.97226544300008,14.47718790300007],[120.97769738500004,14.481946541000074],[120.97883375900005,14.484442030000022],[120.98145922900007,14.48827595700004],[120.98197631800008,14.491424251000069],[120.98056903400004,14.492772793000029],[120.97912682900007,14.492237965000072],[120.97835449800004,14.490257995000036],[120.97802156100009,14.488318745000072],[120.97600738800008,14.486531873000041],[120.97431160000006,14.484258452000065],[120.97322265600009,14.48467673700003],[120.97365631500008,14.48652128200007],[120.97635589700008,14.490248049000055],[120.97669134800003,14.49240897900006],[120.98104692700008,14.493267734000023],[120.98138090300004,14.494006971000033],[120.98172679900006,14.497513026000036],[120.98218450800005,14.499811373000055],[120.98192572300002,14.502076327000054],[120.98275089900005,14.502016853000042],[120.98473163200005,14.503298371000026],[120.98523656900011,14.502842019000067],[120.98806607000006,14.50195394800005],[120.98731337000005,14.500529356000078],[120.98573409200002,14.499903630000063],[120.98542833600006,14.498926794000052],[120.98398710900004,14.497598844000034],[120.98117700500006,14.492935074000059],[120.98287546900009,14.49174532500007],[120.9853372540001,14.492006695000036],[120.98645479400011,14.49336452800003],[120.98759969500009,14.49556878500005],[120.98886109300008,14.49965305000006],[120.98892270300009,14.501622643000072],[120.9897418380001,14.502586016000068],[120.9849056150001,14.503943938000075],[120.97720513600005,14.50639019500005],[120.974211921,14.508107632000078],[120.97729909000009,14.513291277000066],[120.97884198500003,14.516645915000026],[120.97935807600005,14.518841384000037],[120.97947228900011,14.522520927000079],[120.97866733200009,14.541506514000053],[120.98226600200007,14.542354196000073],[120.98280159700005,14.542755799000078],[120.98160872000005,14.544944213000061],[120.9798834620001,14.551670463000049],[120.97848884800011,14.555839239000022],[120.97989871000004,14.556799144000022],[120.98590020200004,14.560110791000056],[120.98482203800006,14.561923600000053],[120.98546445900003,14.562417100000062],[120.98148550400003,14.571362515000036],[120.97942024000008,14.575287630000046],[120.9770793890001,14.57585497400003],[120.97544956100013,14.578422015000056],[120.97448394900003,14.57787607800003],[120.97232829700009,14.578818031000027],[120.97180160700009,14.580234599000049],[120.9721648090001,14.58143566700004],[120.97337995500006,14.582178296000054],[120.97274582100012,14.583159377000065],[120.96887358700008,14.579594577000027],[120.96819347700011,14.580262257000072],[120.97072999900003,14.582709383000065],[120.96940674400003,14.583542740000041],[120.9668058630001,14.581050253000056],[120.96626684700003,14.581578763000032],[120.96901624600004,14.584225480000041],[120.9679408610001,14.585167393000063],[120.9655833280001,14.582887162000077],[120.9649026830001,14.583533677000046],[120.96731038100005,14.585849845000043],[120.96637735100002,14.586796698000054],[120.96228153600009,14.582882444000067],[120.96194519000007,14.583232450000022],[120.96331953300013,14.585188070000072],[120.96573570500003,14.587513071000043],[120.96465056300008,14.588523034000046],[120.96225161900009,14.586227609000051],[120.96263235400012,14.587895857000042],[120.96403256300006,14.589253734000067],[120.96494701200002,14.592012283000033],[120.96357446200011,14.592680226000024],[120.96242866200011,14.592680551000054],[120.9628710830001,14.590782077000028],[120.9618948530001,14.590518759000071],[120.96128198000008,14.588906059000061],[120.95903865900003,14.584665776000069],[120.95657523700005,14.587274569000046],[120.95608316200004,14.588463881000052],[120.95423198100002,14.590316491000067],[120.95386802400004,14.591119100000068],[120.95584185100005,14.592923617000054],[120.95954389700012,14.594372002000059],[120.96062883900004,14.595034343000068],[120.96752885900004,14.59531896900006],[120.96677920700006,14.596419792000066],[120.95928994600001,14.59603905400007],[120.95811702200001,14.596465380000037],[120.9560064540001,14.596377209000028],[120.94337158800012,14.594770830000074],[120.94261376800013,14.598192125000025],[120.94309925700009,14.598662702000071],[120.95421043900002,14.601105148000048],[120.95318839800008,14.602948322000035],[120.95190838400003,14.603160679000041],[120.95121068700007,14.604245701000027],[120.95012025000004,14.604341423000053],[120.94773763100011,14.607739162000028],[120.94694370400009,14.610113082000055],[120.94826762500008,14.611162822000038],[120.95041717700009,14.608869473000025],[120.95288878800011,14.605813049000062],[120.95411097200008,14.603682656000045],[120.9565532370001,14.600498440000022],[120.9604671830001,14.600846682000057],[120.96029789700005,14.602000235000046],[120.95780544900003,14.601813620000028],[120.95774142300002,14.60268513900007],[120.96024106900006,14.602883813000066],[120.96014457600008,14.604044889000022],[120.95815044700008,14.603890367000078],[120.958097069,14.604634505000035],[120.96009658300011,14.604794893000077],[120.95999460700011,14.606008096000032],[120.95797906800011,14.605874592000074],[120.95792487000007,14.606617846000066],[120.95993462700005,14.60674976900003],[120.95983265300005,14.607991991000066],[120.95781545400008,14.607856417000047],[120.95775921300005,14.608591174000026],[120.95976067100001,14.608734999000033],[120.95967300200005,14.609967048000044],[120.95761374200004,14.609838795000032],[120.95757069400008,14.610558390000048],[120.95957395300003,14.610712556000065],[120.95947552300005,14.611948483000049],[120.95745139800012,14.61179362400003],[120.9574088060001,14.61252748900006],[120.95945258300003,14.612694781000073],[120.95937326900004,14.61359025300004],[120.95687171600004,14.613395350000074],[120.95642474400007,14.61937723800003],[120.95793742500005,14.620506376000044],[120.95510508900009,14.620824032000034],[120.9537046920001,14.627663064000046],[120.95384122300004,14.628153188000054],[120.95714752900005,14.628236068000037],[120.95921568000006,14.626012188000056],[120.95964537300006,14.62658595300007],[120.9592946470001,14.629373004000055],[120.95830858400008,14.629806406000059],[120.94619933500007,14.629830818000073],[120.94506191800008,14.629397471000058],[120.94246443500005,14.631905417000041],[120.9414001470001,14.634242946000029],[120.95321234600011,14.634257039000039],[120.95704763600008,14.633331012000045],[120.95625800100004,14.635922040000027],[120.95423291700001,14.636178884000062],[120.95403416800004,14.636900788000052],[120.94765937300008,14.646028170000022],[120.94747486300002,14.647603288000026],[120.9485925030001,14.648364154000033],[120.94835388800004,14.64964739900006],[120.94687617500007,14.651077143000068],[120.9479257270001,14.652425767000068],[120.94552360400007,14.656164171000055],[120.94382057100007,14.657719219000063],[120.94287816500001,14.65955585200004],[120.94167153700005,14.66031665300005],[120.94029563100001,14.66211444200008],[120.93897084700006,14.664553995000066],[120.93702155300002,14.667216739000024],[120.93233506500009,14.671736072000046],[120.93064094800002,14.67407518900006],[120.93075990400008,14.676219540000034],[120.92959436900003,14.676729994000025],[120.92786631700005,14.678325805000043],[120.92639205500008,14.680841896000059],[120.92536221600005,14.683986922000031],[120.9207116890001,14.688575137000043],[120.91634463800007,14.69208200700007],[120.9121738660001,14.695748533000033],[120.91059674500002,14.69667550000002],[120.90973392700003,14.697790685000031],[120.90729580200002,14.699681079000078],[120.90647361100004,14.700914682000073],[120.90911267700005,14.702972009000064],[120.9114163600001,14.704152596000036],[120.91416393100006,14.70731106400007],[120.914869177,14.70871985200006],[120.91431149500012,14.711028904000038],[120.91490650500009,14.712337047000064],[120.91614591000005,14.712595686000043],[120.9176486350001,14.712146692000031],[120.91841488700004,14.712960826000028],[120.92356341200002,14.708488903000054],[120.92712730400001,14.704270054000055],[120.92733208400013,14.702649063000022],[120.93012120100002,14.70222216800005],[120.93398099400008,14.69783727600003],[120.93768441400005,14.694990271000053],[120.94315945500011,14.689610097000072],[120.94533687500007,14.688489937000043],[120.94725167200012,14.690206885000071],[120.95312750500011,14.694240067000063],[120.94994748200008,14.697295498000072],[120.94557260000009,14.703227483000033],[120.94113023999999,14.708384894000066],[120.9396972070001,14.710352311000065],[120.93833419600004,14.711650330000056],[120.93571315800011,14.714871993000035],[120.93535665300011,14.716962540000052],[120.9312420670001,14.722405775000025],[120.92993598600002,14.723804501000071],[120.93057831200008,14.724952086000027],[120.92927571200006,14.726809076000057],[120.92596146500011,14.734299748000062],[120.92669637300003,14.735891321000052],[120.92774430100008,14.735890143000068],[120.93048309200002,14.73450097700004],[120.93407246800008,14.733149373000058],[120.93539334600005,14.733896244000048],[120.93633694300001,14.736818515000042],[120.93890695100004,14.737181503000045],[120.94139839400007,14.737112462000027],[120.9430263180001,14.734198211000033],[120.94371322100007,14.733749728000076],[120.94673267500002,14.733564322000062],[120.94748448500002,14.73416619000005],[120.9492786620001,14.734196689000044],[120.95115423400011,14.732636229000036],[120.95204213600005,14.731309433000035],[120.95236551000005,14.729162216000079],[120.95357356600005,14.72928706700003],[120.95424924100008,14.728546895000019],[120.95557577000012,14.725454604000051],[120.95653880300007,14.724631223000072],[120.95584270700012,14.723902100000032],[120.95955042400011,14.719873626000036],[120.96026179700006,14.720341312000073],[120.96252944000003,14.719758879000036],[120.96317694600009,14.721462755000056],[120.9653718720001,14.722066672000038],[120.96529877300009,14.722641542000074],[120.96768144600001,14.723867912000063],[120.96872683800007,14.723657271000034],[120.96950173200003,14.72203883700007],[120.97081803500011,14.722240002000037],[120.97262893000003,14.724067006000041],[120.97363930200005,14.723846412000057],[120.97456295200004,14.724902285000038],[120.97632849300008,14.72541485800002],[120.97778801200002,14.724137507000021],[120.97997499500002,14.724794910000071],[120.9813225040001,14.724637089000062],[120.98338951500011,14.725953012000048],[120.97852281100006,14.734806719000064],[120.98106158100006,14.735977454000023],[120.98051462800004,14.737421458000023],[120.98157778000008,14.737709083000023],[120.98162907100004,14.740755374000058],[120.98197585600009,14.740893917000049],[120.98355705000004,14.743867555000062],[120.98371830300005,14.74502550200003],[120.98483090800006,14.746008162000066],[120.98533279200002,14.748522363000061],[120.98619261700004,14.74947452300006],[120.98582462300011,14.75074766600005],[120.9891736630001,14.753565215000034],[120.98864497200009,14.754508240000062],[120.9901370550001,14.757063631000053],[120.99481552800013,14.75635161300005],[120.99648759100012,14.757132056000051],[120.99781994400006,14.758378777000072],[120.99809005400006,14.756260767000073],[121.00086528200005,14.753523324000069],[121.0025716340001,14.753414910000057],[121.00673955900005,14.754496056000049],[121.00833460600008,14.754411855000063],[121.00890606500003,14.756751727000054],[121.01692736300004,14.760274970000074],[121.01889804200003,14.760843414000018],[121.02402399100004,14.763034879000028],[121.02434170900005,14.76496215600002],[121.02518135800005,14.766549234000022],[121.02559118500007,14.768634566000058],[121.0266373400001,14.771406580000074],[121.02568929400002,14.77213637200003],[121.02385302800008,14.77264812900006],[121.02387844400006,14.774326453000072],[121.02670983100005,14.774441067000051],[121.02735673500001,14.775489269000046],[121.02600331800011,14.776554988000047],[121.02805707100003,14.777713108000055],[121.0263268330001,14.778031824000038],[121.02500613600012,14.77932623500004],[121.02754561700009,14.779738990000052],[121.02796889500009,14.781271736000066],[121.02891282100006,14.781845572000062],[121.03008824000004,14.78139038200004],[121.03017164600011,14.782975645000022],[121.03095364500005,14.784041785000056],[121.03174676900004,14.782937383000048],[121.03388966500006,14.783564930000063],[121.0363578050001,14.783937876000032],[121.03660893900008,14.785214485000042],[121.03890663000006,14.78503162200007],[121.04159203800009,14.783451603000058],[121.0418419670001,14.781663160000052],[121.04394383900002,14.780403640000033],[121.04825023900004,14.782252495000023],[121.04932499400003,14.78212860500002],[121.04992521500003,14.783156044000062],[121.05101531800004,14.782603874000076],[121.05296788200008,14.782888909000066],[121.0545822250001,14.781180080000071],[121.05542050700002,14.782563240000059],[121.05655868000008,14.780805467000048],[121.05747752800004,14.780195000000052],[121.05921910000006,14.78073179800003],[121.05954269600012,14.77710146100002],[121.0614018660001,14.779166082000076],[121.06281189200001,14.778688669000076],[121.0623886750001,14.776325968000037],[121.06298962200002,14.774852559000067],[121.06525060000001,14.776387673000038],[121.06565511200004,14.777533081000055],[121.06665764700006,14.777130279000067],[121.06710061700007,14.775743553000042],[121.0664698710001,14.774105625000061],[121.06879491500003,14.774152510000022],[121.0701767710001,14.77453529600007],[121.07070745300007,14.77583618900007],[121.07150042900004,14.775874928000059],[121.07265126400011,14.774510091000023],[121.07197615500002,14.77330746900003],[121.072213507,14.77177536900007],[121.07363568900007,14.772427819000033],[121.07389394100005,14.773271411000053],[121.07670666200012,14.77495232100006],[121.0773911670001,14.776568390000023],[121.07826791200013,14.774869666000031],[121.07760115800012,14.773477818000057],[121.08057925900005,14.773136531000029],[121.08054989000004,14.771693627000046],[121.08191778900004,14.77230790200002],[121.08191825000007,14.77408889800006],[121.08304100300006,14.774688936000071],[121.08382999100003,14.773037461000055],[121.08587499800001,14.773785710000025],[121.08667372000002,14.773334395000063],[121.08660551100002,14.771540849000075],[121.08797582000011,14.770574168000053],[121.08637318700006,14.769358921000041],[121.08710074800001,14.76797293900006],[121.08833652600003,14.76847360600004],[121.08898496300003,14.769471197000028],[121.09015714500005,14.769048742000054],[121.09064479400001,14.767453811000047],[121.0923018750001,14.76753104800002],[121.0928342100001,14.768191757000068],[121.09335466400013,14.770368447000061],[121.09503491700002,14.770873756000073],[121.095106642,14.768783995000039],[121.0962001490001,14.76831194900006],[121.09759307400009,14.768762164000064],[121.09820947700007,14.769703594000077],[121.09843658800003,14.771304286000031],[121.09935888700012,14.771236387000043],[121.0995065390001,14.769209589000067]]]}},"features":[{"type":"Feature","id":"1380100000","properties":{"psgc":"1380100000","name":"City of Caloocan","areaType":"city","regionPsgc":"1300000000"},"geometry":{"type":"MultiPolygon","coordinates":[[[[121.01480963500002,14.709835197000068],[121.00024551500007,14.714251076000037],[121.00075570100012,14.72044511200005],[121.0049879300001,14.729628423000063],[121.00380235700004,14.73491613800007],[121.00704788100006,14.745780776000055],[121.00086528200005,14.753523324000069],[121.02402399100004,14.763034879000028],[121.0266373400001,14.771406580000077],[121.02385302800008,14.77264812900006],[121.02796889500009,14.781271736000066],[121.03890663000006,14.78503162200007],[121.04394383900002,14.780403640000033],[121.05542050700002,14.782563240000055],[121.06281189200001,14.778688669000076],[121.06298962200002,14.774852559000065],[121.07389394100005,14.77327141100005],[121.085874998,14.773785710000029],[121.08710074800001,14.767972939000064],[121.09759307400009,14.768762164000071],[121.09979889200008,14.762714034000055],[121.09102126100005,14.758445970000023],[121.08593385900008,14.758682793000048],[121.08478153300007,14.75184930800003],[121.0750391780001,14.74019406700006],[121.06725470200003,14.742203238000055],[121.04083690900006,14.742111187000035],[121.03789804500002,14.73601830500007],[121.03397876600002,14.735899964000055],[121.02878736700008,14.729425610000018],[121.0202148840001,14.724787652000028],[121.01364662500008,14.716456401000073],[121.01480963500002,14.709835197000068]]],[[[121.02257449100011,14.690437151000024],[121.01537145100008,14.680616881000052],[121.00549789400009,14.67190995900006],[120.99966159700013,14.661869980000061],[120.99997349600005,14.65879779600004],[120.99402602500005,14.64764732900005],[120.99127371500005,14.639904883000044],[120.96862458700002,14.63559090800004],[120.96225962600012,14.645016088000034],[120.96486275400002,14.650648591000046],[120.96182869100004,14.65945243400006],[120.96772549,14.658533070000034],[120.97209519400006,14.661715538000065],[120.98820503800005,14.662747355000022],[121.00042241300004,14.670546765000038],[120.99614758700011,14.67531247400006],[120.99969488700003,14.684437688000058],[121.0063778980001,14.686354851000031],[121.01097453500007,14.682468940000035],[121.0152977680001,14.692058589000059],[121.02257449100011,14.690437151000024]]]]}},{"type":"Feature","id":"1380200000","properties":{"psgc":"1380200000","name":"City of Las Piñas","areaType":"city","regionPsgc":"1300000000"},"geometry":{"type":"Polygon","coordinates":[[[121.0243382450001,14.436169403000063],[121.02237722100007,14.427322316000074],[121.02240396000002,14.422385589000042],[121.0126901010001,14.406896132000039],[121.01163612800009,14.398984211000029],[121.00932225500003,14.391410368000034],[121.01044075000004,14.384692120000066],[121.01314564200005,14.38075777100005],[121.0107845030001,14.374852788000055],[121.00977588900003,14.380729163000066],[121.00666103300011,14.387115552000067],[121.00785481900004,14.390869810000028],[121.00173473400002,14.394243259000056],[121.002935911,14.397282981000046],[121.00082376400007,14.401403554000069],[120.99448670900004,14.407610540000064],[120.99500452300002,14.410570512000046],[120.99160112900007,14.415558140000027],[120.98922629800006,14.422662464000043],[120.98449536800001,14.429663197000027],[120.98377063700002,14.433689059000075],[120.97915620900005,14.435105431000066],[120.97409510600004,14.439106137000072],[120.96992547900005,14.446625819000072],[120.97045243900004,14.454728424000054],[120.9660033990001,14.465722366000023],[120.97051827500002,14.473771307000051],[120.97036501600007,14.475720842000047],[120.97821637100003,14.482717795000044],[120.98077125500004,14.48746457600004],[120.99281317200008,14.482735746000062],[120.9910708870001,14.476456300000054],[120.996718567,14.47425229300006],[121.00221383300004,14.46725885300003],[121.00143263100006,14.46190537700005],[121.00259440700007,14.455826489000064],[121.01121079700012,14.452593389000068],[121.01467850300001,14.447132929000075],[121.01698862900004,14.441272188000026],[121.02064535500007,14.435414469000024],[121.0243382450001,14.436169403000063]]]}},{"type":"Feature","id":"1380300000","properties":{"psgc":"1380300000","name":"City of Makati","areaType":"city","regionPsgc":"1300000000"},"geometry":{"type":"Polygon","coordinates":[[[121.06431954100005,14.551917179000043],[121.06746195000004,14.54914952700005],[121.062464351,14.542771136000052],[121.06641223300004,14.537754094000032],[121.0617142540001,14.535277307000062],[121.05550333100008,14.542340038000074],[121.05155845400009,14.535643612000055],[121.04646101700007,14.535643601000055],[121.04698798600009,14.541464736000027],[121.03970020400006,14.53983291400004],[121.03811473400003,14.536255572000073],[121.033448635,14.533932557000071],[121.0312109140001,14.53492598400004],[121.0222366910001,14.530536428000062],[121.01224285500005,14.530498584000041],[121.01294378600006,14.539075190000068],[121.00901621700007,14.540370066000035],[121.00929099700011,14.547564459000057],[121.00218636900001,14.55212152100006],[121.00016999200011,14.55481578900003],[120.9988221530001,14.56171635700002],[121.01643006400002,14.57919822200006],[121.02609052700006,14.574203588000051],[121.0332202510001,14.568020304000068],[121.03678069000011,14.56727716700004],[121.04275851500006,14.568696423000064],[121.05041966400006,14.568402103000038],[121.05847070900008,14.56487333800004],[121.06700656800001,14.559267901000055],[121.06431954100005,14.551917179000043]]]}},{"type":"Feature","id":"1380400000","properties":{"psgc":"1380400000","name":"City of Malabon","areaType":"city","regionPsgc":"1300000000"},"geometry":{"type":"Polygon","coordinates":[[[120.95312750500011,14.694240067000067],[120.95614066100006,14.695989081000048],[120.96101835800005,14.68640078100003],[120.96897329600007,14.679139229000043],[120.97838490400011,14.674829518000019],[120.97985074400003,14.671214976000048],[120.98569540800008,14.66879355100002],[120.99614758700011,14.67531247400006],[121.00042241300004,14.670546765000038],[120.98820503800005,14.662747355000022],[120.97209519400006,14.661715538000065],[120.96772549,14.658533070000034],[120.96182869100004,14.65945243400006],[120.96486275400002,14.650648591000046],[120.96225962600012,14.645016088000034],[120.95004056900008,14.65538551200006],[120.94744168900002,14.665518086000077],[120.94224294700007,14.671823643000039],[120.93640318900009,14.683036250000043],[120.93752182500009,14.686525287000048],[120.92829616900009,14.693572863000043],[120.92350922800007,14.699165367000036],[120.92733208400013,14.702649063000022],[120.94533687500007,14.688489937000043],[120.95312750500011,14.694240067000067]]]}},{"type":"Feature","id":"1380500000","properties":{"psgc":"1380500000","name":"City of Mandaluyong","areaType":"city","regionPsgc":"1300000000"},"geometry":{"type":"Polygon","coordinates":[[[121.05966011600003,14.59007071800005],[121.05987154900005,14.581568914000059],[121.0513976430001,14.56794117400006],[121.0332202510001,14.568020304000068],[121.01704669300013,14.580975754000068],[121.02603883000006,14.59479852000004],[121.03468091900004,14.590720646000024],[121.0517763150001,14.601365661000047],[121.05924493500004,14.601644073000044],[121.05966011600003,14.59007071800005]]]}},{"type":"Feature","id":"1380600000","properties":{"psgc":"1380600000","name":"City of Manila","areaType":"city","regionPsgc":"1300000000"},"geometry":{"type":"Polygon","coordinates":[[[120.98508259400012,14.63997936800007],[120.98886937800013,14.639798129000043],[120.98849475700001,14.637619194000019],[120.99305930000003,14.635932792000059],[120.98988594100001,14.62564046500006],[121.01043199200002,14.609786651000029],[121.01915248400007,14.60318034400006],[121.02008664800006,14.601735905000055],[121.02346203800005,14.599584719000067],[121.02617047000001,14.593990118000022],[121.02596856100001,14.591916051000057],[121.02275564600008,14.589328393000072],[121.01964556300004,14.584084904000063],[121.01704669300013,14.580975754000068],[121.01643006400002,14.57919822200006],[120.99905087700006,14.561899275000027],[120.98751161400004,14.558607406000023],[120.98595033600007,14.560013705000072],[120.98546445900003,14.562417100000062],[120.98148550400003,14.571362515000033],[120.97942024000008,14.575287630000043],[120.9770793890001,14.57585497400003],[120.97544956100013,14.578422015000056],[120.97232829700009,14.578818031000026],[120.97180160700009,14.580234599000049],[120.96819347700011,14.580262257000072],[120.97072999900003,14.582709383000065],[120.96403256300006,14.589253734000067],[120.96494701200002,14.592012283000033],[120.96242866200011,14.592680551000054],[120.9618948530001,14.590518759000071],[120.95903865900003,14.584665776000065],[120.95657523700005,14.587274569000046],[120.95386802400004,14.591119100000068],[120.95584185100005,14.592923617000054],[120.96062883900004,14.595034343000066],[120.96752885900004,14.59531896900006],[120.96677920700006,14.59641979200006],[120.95928994600001,14.59603905400007],[120.9560064540001,14.596377209000025],[120.94337158800012,14.594770830000074],[120.94309925700009,14.598662702000071],[120.95421043900002,14.601105148000048],[120.95318839800008,14.602948322000035],[120.95012025000004,14.604341423000053],[120.94773763100011,14.607739162000028],[120.94694370400009,14.610113082000051],[120.94826762500008,14.611162822000042],[120.95288878800011,14.605813049000059],[120.9565532370001,14.600498440000022],[120.9604671830001,14.600846682000054],[120.95937326900004,14.61359025300004],[120.95687171600004,14.613395350000072],[120.95642474400007,14.619377238000027],[120.95510508900009,14.620824032000034],[120.9537046920001,14.627663064000043],[120.95714752900005,14.628236068000037],[120.95830858400008,14.629806406000059],[120.94619933500007,14.629830818000073],[120.94506191800008,14.629397471000061],[120.94246443500005,14.631905417000041],[120.9414001470001,14.634242946000033],[120.95321234600011,14.634257039000035],[120.95704763600008,14.633331012000045],[120.96033030200009,14.635341991000073],[120.96222793100004,14.635137024000075],[120.96420763100002,14.63652339400005],[120.9659005430001,14.635095938000065],[120.97429032200012,14.635803139000075],[120.97509526100008,14.635249991000025],[120.97990545500012,14.63553062200003],[120.9798225200001,14.639023716000052],[120.98398126100005,14.63800423900005],[120.98508259400012,14.63997936800007]]]}},{"type":"Feature","id":"1380700000","properties":{"psgc":"1380700000","name":"City of Marikina","areaType":"city","regionPsgc":"1300000000"},"geometry":{"type":"Polygon","coordinates":[[[121.10187866500006,14.620657343000058],[121.08365058700008,14.624011572000027],[121.07903023100006,14.617969850000065],[121.0744057940001,14.628550651000067],[121.08370051300007,14.64383407300005],[121.08976019500005,14.662515672000044],[121.10670234300007,14.675499389000038],[121.1261471470001,14.66997417700003],[121.13486852100006,14.65885238300007],[121.12855805700009,14.643593338000073],[121.10549838300007,14.632654354000069],[121.10187866500006,14.620657343000058]]]}},{"type":"Feature","id":"1380800000","properties":{"psgc":"1380800000","name":"City of Muntinlupa","areaType":"city","regionPsgc":"1300000000"},"geometry":{"type":"Polygon","coordinates":[[[121.05738463300008,14.466723355000058],[121.05390775000002,14.457130870000073],[121.05431214100007,14.44430904500007],[121.05188986700011,14.436265553000057],[121.05187271600006,14.427513727000076],[121.0535333370001,14.42635402700006],[121.0521022700001,14.420628480000056],[121.05244736300004,14.409977223000055],[121.05123885500008,14.40854673800004],[121.05118068,14.397627659000023],[121.0536056960001,14.39250135500004],[121.05344660100002,14.386912599000025],[121.05571386300005,14.381577136000036],[121.05798536000009,14.380141653000063],[121.05255455200007,14.374777004000064],[121.05150154700004,14.369658617000026],[121.04546609300007,14.367266193000034],[121.04169287800006,14.369776447000048],[121.03292930300005,14.365607391000022],[121.0298758130001,14.365980729000055],[121.02591499100004,14.359451931000022],[121.01945223300004,14.353054343000053],[121.01336353000012,14.351973628000051],[121.00759085400011,14.355170370000051],[121.00673784700005,14.36120978200006],[121.00718216100006,14.370073908000052],[121.0107845030001,14.374852788000055],[121.01314564200005,14.38075777100005],[121.01044075000004,14.384692120000066],[121.00932225500003,14.391410368000034],[121.01163612800009,14.398984211000029],[121.0126901010001,14.406896132000039],[121.02240396000002,14.422385589000042],[121.02237722100007,14.427322316000074],[121.0243382450001,14.436169403000063],[121.0279942190001,14.440199183000061],[121.03313923200007,14.442494227000056],[121.0363984820001,14.440122429000041],[121.04106696500003,14.443779256000028],[121.04074,14.44837],[121.04515791100006,14.452245447000054],[121.04568175900012,14.465679895000044],[121.04668523600003,14.467856441000034],[121.05738463300008,14.466723355000058]]]}},{"type":"Feature","id":"1380900000","properties":{"psgc":"1380900000","name":"City of Navotas","areaType":"city","regionPsgc":"1300000000"},"geometry":{"type":"Polygon","coordinates":[[[120.92733208400013,14.702649063000022],[120.92350922800007,14.699165367000036],[120.92829616900009,14.693572863000043],[120.93752182500009,14.686525287000048],[120.93640318900009,14.683036250000043],[120.94224294700007,14.671823643000039],[120.94744168900002,14.665518086000077],[120.95004056900008,14.65538551200006],[120.96225962600012,14.645016088000034],[120.96862458700002,14.63559090800004],[120.95403416800004,14.636900788000052],[120.94765937300008,14.646028170000022],[120.9479257270001,14.652425767000068],[120.93702155300002,14.667216739000025],[120.93064094800002,14.674075189000057],[120.92536221600005,14.683986922000035],[120.90729580200002,14.699681079000078],[120.91841488700004,14.712960826000025],[120.92733208400013,14.702649063000022]]]}},{"type":"Feature","id":"1381000000","properties":{"psgc":"1381000000","name":"City of Parañaque","areaType":"city","regionPsgc":"1300000000"},"geometry":{"type":"Polygon","coordinates":[[[121.03527359300006,14.506378342000062],[121.04686590800009,14.500259387000028],[121.04772115000002,14.492622752000045],[121.04609510700004,14.480890449000075],[121.04811377400006,14.47578772500003],[121.04668523600003,14.467856441000034],[121.04568175900012,14.465679895000044],[121.04515791100006,14.452245447000054],[121.04074,14.44837],[121.04106696500003,14.443779256000028],[121.0363984820001,14.440122429000041],[121.03313923200007,14.442494227000056],[121.0279942190001,14.440199183000061],[121.0243382450001,14.436169403000063],[121.02064535500007,14.435414469000024],[121.01698862900004,14.441272188000026],[121.01467850300001,14.447132929000075],[121.01121079700012,14.452593389000068],[121.00259440700007,14.455826489000064],[121.00143263100006,14.46190537700005],[121.00221383300004,14.46725885300003],[120.996718567,14.47425229300006],[120.9910708870001,14.476456300000054],[120.99281317200008,14.482735746000062],[120.98077125500004,14.48746457600004],[120.9780115530001,14.489099628000075],[120.97626195400005,14.49011177400007],[120.98104692700008,14.493267734000023],[120.98275089900005,14.502016853000042],[120.98573409200002,14.499903630000063],[120.98117700500006,14.492935074000059],[120.9853372540001,14.49200669500004],[120.98759969500009,14.49556878500005],[120.9897418380001,14.502586016000071],[120.97720513600005,14.50639019500005],[120.974211921,14.508107632000076],[120.97884198500003,14.516645915000026],[120.97914223700002,14.529580794000028],[120.99284349300002,14.531263857000058],[120.9988313140001,14.532654936000029],[120.99833124800011,14.527269477000065],[121.00111301800005,14.511842245000027],[121.00785055500013,14.509702043000058],[121.01442396900006,14.50418128300004],[121.02016,14.50236],[121.02191,14.50438],[121.0318370120001,14.506583670000053],[121.03527359300006,14.506378342000062]]]}},{"type":"Feature","id":"1381200000","properties":{"psgc":"1381200000","name":"City of Pasig","areaType":"city","regionPsgc":"1300000000"},"geometry":{"type":"Polygon","coordinates":[[[121.10187866500006,14.620657343000058],[121.11044978200005,14.592235448000055],[121.10905753300005,14.580946777000065],[121.0968965510001,14.569254547000074],[121.09812230000013,14.554700033000076],[121.09436799700006,14.546736230000024],[121.08109244600007,14.547432314000044],[121.06700656800001,14.559267901000055],[121.0513976430001,14.56794117400006],[121.05987154900005,14.581568914000059],[121.05966011600003,14.59007071800005],[121.08227194300004,14.595044767000047],[121.07903023100006,14.617969850000065],[121.08365058700008,14.624011572000027],[121.10187866500006,14.620657343000058]]]}},{"type":"Feature","id":"1381400000","properties":{"psgc":"1381400000","name":"City of San Juan","areaType":"city","regionPsgc":"1300000000"},"geometry":{"type":"Polygon","coordinates":[[[121.05924493500004,14.601644073000044],[121.0517763150001,14.601365661000047],[121.03468091900004,14.590720646000024],[121.02603883000006,14.59479852000004],[121.01962265700001,14.60305778500003],[121.02328190000003,14.613483535000057],[121.0377023420001,14.606355012000055],[121.04299056400009,14.609623737000051],[121.05924493500004,14.601644073000044]]]}},{"type":"Feature","id":"1381500000","properties":{"psgc":"1381500000","name":"City of Taguig","areaType":"city","regionPsgc":"1300000000"},"geometry":{"type":"Polygon","coordinates":[[[121.05738463300008,14.466723355000058],[121.04668523600003,14.467856441000034],[121.04811377400006,14.47578772500003],[121.04609510700004,14.480890449000075],[121.04772115000002,14.492622752000045],[121.04686590800009,14.500259387000028],[121.03527359300006,14.506378342000062],[121.0222366910001,14.530536428000062],[121.0312109140001,14.53492598400004],[121.033448635,14.533932557000071],[121.03811473400003,14.536255572000073],[121.03970020400006,14.53983291400004],[121.04698798600009,14.541464736000027],[121.04646101700007,14.535643601000055],[121.05155845400009,14.535643612000055],[121.05550333100008,14.542340038000074],[121.0617142540001,14.535277307000062],[121.06641223300004,14.537754094000032],[121.07198997200011,14.537816496000062],[121.07206738700005,14.541959064000025],[121.07805766000001,14.546894164000035],[121.09436799700006,14.546736230000024],[121.09628064200002,14.540916531000049],[121.1025833670001,14.534944976000077],[121.10384570800011,14.530768855000076],[121.09620749500004,14.522171409000068],[121.09383482400006,14.521060017000027],[121.08828233100007,14.508806965000076],[121.08271470000011,14.505055543000028],[121.06932934800011,14.506686393000052],[121.06738414200005,14.503185316000048],[121.063154906,14.48877318600006],[121.06167324600005,14.477283294000078],[121.05929284500007,14.469177004000075],[121.05738463300008,14.466723355000058]]]}},{"type":"Feature","id":"1381600000","properties":{"psgc":"1381600000","name":"City of Valenzuela","areaType":"city","regionPsgc":"1300000000"},"geometry":{"type":"Polygon","coordinates":[[[121.00086528200005,14.753523324000069],[121.00704788100006,14.745780776000055],[121.00380235700004,14.73491613800007],[121.0049879300001,14.729628423000063],[121.00075570100012,14.72044511200005],[121.00024551500007,14.714251076000037],[121.01480963500002,14.709835197000068],[121.01701624600004,14.70898151000006],[121.01807748700003,14.700317976000068],[121.02462678100007,14.693772084000045],[121.02257449100011,14.690437151000024],[121.0152977680001,14.692058589000059],[121.01097453500007,14.682468940000035],[121.0063778980001,14.686354851000031],[120.99969488700003,14.684437688000058],[120.99614758700011,14.67531247400006],[120.98569540800008,14.66879355100002],[120.97985074400003,14.671214976000048],[120.97838490400011,14.674829518000019],[120.96897329600007,14.679139229000043],[120.96101835800005,14.68640078100003],[120.95614066100006,14.695989081000048],[120.95312750500011,14.694240067000067],[120.93571315800011,14.714871993000035],[120.92993598600002,14.723804501000075],[120.92596146500011,14.734299748000069],[120.93407246800008,14.733149373000058],[120.93633694300001,14.736818515000042],[120.9430263180001,14.734198211000033],[120.9492786620001,14.73419668900004],[120.95955042400011,14.719873626000034],[120.96768144600001,14.72386791200006],[120.98338951500011,14.725953012000048],[120.97852281100006,14.73480671900006],[120.98483090800006,14.746008162000063],[120.98582462300011,14.75074766600005],[120.9901370550001,14.75706363100005],[120.99809005400006,14.756260767000073],[121.00086528200005,14.753523324000069]]]}},{"type":"Feature","id":"1381100000","properties":{"psgc":"1381100000","name":"Pasay City","areaType":"city","regionPsgc":"1300000000"},"geometry":{"type":"Polygon","coordinates":[[[120.9988221530001,14.56171635700002],[121.00016999200011,14.55481578900003],[121.00218636900001,14.55212152100006],[121.00929099700011,14.547564459000057],[121.00901621700007,14.540370066000035],[121.01294378600006,14.539075190000068],[121.01224285500005,14.530498584000041],[121.0222366910001,14.530536428000062],[121.03527359300006,14.506378342000062],[121.0318370120001,14.506583670000053],[121.02191,14.50438],[121.02016,14.50236],[121.01442396900006,14.50418128300004],[121.00785055500013,14.509702043000058],[121.00111301800005,14.511842245000027],[120.99833124800011,14.527269477000065],[120.9988313140001,14.532654936000029],[120.99284349300002,14.531263857000058],[120.97914223700002,14.529580794000028],[120.97866733200009,14.54150651400005],[120.98160872000005,14.544944213000061],[120.97848884800011,14.555839239000022],[120.98585121000008,14.560059590000035],[120.98751161400004,14.558607406000023],[120.9988221530001,14.56171635700002]]]}},{"type":"Feature","id":"1381701000","properties":{"psgc":"1381701000","name":"Pateros","areaType":"municipality","regionPsgc":"1300000000"},"geometry":{"type":"Polygon","coordinates":[[[121.07805766000001,14.546894164000035],[121.07206738700005,14.541959064000025],[121.07198997200011,14.537816496000062],[121.06641223300004,14.537754094000032],[121.062464351,14.542771136000052],[121.06746195000004,14.54914952700005],[121.06431954100005,14.551917179000043],[121.070956066,14.552397345000024],[121.07582496400005,14.549826778000067],[121.07805766000001,14.546894164000035]]]}},{"type":"Feature","id":"1381300000","properties":{"psgc":"1381300000","name":"Quezon City","areaType":"city","regionPsgc":"1300000000"},"geometry":{"type":"Polygon","coordinates":[[[121.10670234300007,14.675499389000038],[121.08976019500005,14.662515672000044],[121.08370051300007,14.64383407300005],[121.0744057940001,14.628550651000067],[121.07903023100006,14.617969850000065],[121.08227194300004,14.595044767000047],[121.05966011600003,14.59007071800005],[121.05924493500004,14.601644073000044],[121.04299056400009,14.609623737000051],[121.0377023420001,14.606355012000055],[121.02328190000003,14.613483535000057],[121.01962265700001,14.60305778500003],[120.98988594100001,14.62564046500006],[120.99127371500005,14.639904883000044],[121.00549789400009,14.67190995900006],[121.02265398600002,14.687140174000033],[121.01443080000003,14.719158309000022],[121.02878736700008,14.729425610000018],[121.04083690900006,14.742111187000035],[121.0750391780001,14.74019406700006],[121.09102126100005,14.758445970000023],[121.10968224500004,14.763837527000021],[121.12119922200007,14.776029560000044],[121.12478007000006,14.766289029000061],[121.11822157000006,14.749419337000065],[121.11802297800013,14.729928850000022],[121.1258152700001,14.72139937300005],[121.12461778900001,14.70874460200002],[121.11640583700012,14.705626875000062],[121.1121687010001,14.684747919000074],[121.10670234300007,14.675499389000038]]]}}]}
